start=new Date('2023-05-21T00:00:00.000Z').valueOf();
sats=[{"TLE_LINE1":"1 48453U 21040AB  23140.84177379  .00000476  00000-0  50789-4 0  9997","BSTAR":"0.00005078900000","MEAN_MOTION_DDOT":"0.0000000000000","MEAN_ELEMENT_THEORY":"SGP4","CLASSIFICATION_TYPE":"U","EPOCH":"2023-05-20T20:12:09.255456","TLE_LINE2":"2 48453  53.0526  97.8400 0001089  93.9568 266.1546 15.06415217112313","EPHEMERIS_TYPE":"0","PERIOD":"95.591","OBJECT_ID":"2021-040AB","LAUNCH_DATE":"2021-05-09","COUNTRY_CODE":"US","NORAD_CAT_ID":"48453","APOAPSIS":"547.921","RA_OF_ASC_NODE":"97.8400","TIME_SYSTEM":"UTC","REF_FRAME":"TEME","MEAN_ANOMALY":"266.1546","SEMIMAJOR_AXIS":"6925.302","REV_AT_EPOCH":"11231","PERIAPSIS":"546.413","OBJECT_TYPE":"PAYLOAD","ARG_OF_PERICENTER":"93.9568","MEAN_MOTION_DOT":"0.00000476","DECAY_DATE":null,"RCS_SIZE":"LARGE","CENTER_NAME":"EARTH","INCLINATION":"53.0526","ECCENTRICITY":"0.00010890","SITE":"AFETR","FILE":"3913175","GP_ID":"232207892","MEAN_MOTION":"15.06415217","OBJECT_NAME":"STARLINK-2620","ELEMENT_SET_NO":"999"},{"OBJECT_TYPE":"PAYLOAD","PERIAPSIS":"546.303","MEAN_MOTION_DOT":"0.00000684","ARG_OF_PERICENTER":"90.1109","GP_ID":"232171405","MEAN_MOTION":"15.06397581","FILE":"3912534","SITE":"AFETR","INCLINATION":"53.0556","ECCENTRICITY":"0.00013260","RCS_SIZE":"LARGE","CENTER_NAME":"EARTH","DECAY_DATE":null,"ELEMENT_SET_NO":"999","OBJECT_NAME":"STARLINK-2654","CLASSIFICATION_TYPE":"U","MEAN_ELEMENT_THEORY":"SGP4","TLE_LINE1":"1 48454U 21040AC  23140.17463121  .00000684  00000-0  64811-4 0  9999","MEAN_MOTION_DDOT":"0.0000000000000","BSTAR":"0.00006481100000","PERIOD":"95.592","OBJECT_ID":"2021-040AC","EPHEMERIS_TYPE":"0","TLE_LINE2":"2 48454  53.0556 100.8454 0001326  90.1109 270.0032 15.06397581113492","EPOCH":"2023-05-20T04:11:28.136544","APOAPSIS":"548.139","NORAD_CAT_ID":"48454","COUNTRY_CODE":"US","LAUNCH_DATE":"2021-05-09","SEMIMAJOR_AXIS":"6925.356","REV_AT_EPOCH":"11349","MEAN_ANOMALY":"270.0032","REF_FRAME":"TEME","TIME_SYSTEM":"UTC","RA_OF_ASC_NODE":"100.8454"},{"MEAN_ELEMENT_THEORY":"SGP4","CLASSIFICATION_TYPE":"U","TLE_LINE1":"1 48455U 21040AD  23140.17094774  .00001917  00000-0  14751-3 0  9991","BSTAR":"0.00014751000000","MEAN_MOTION_DDOT":"0.0000000000000","EPHEMERIS_TYPE":"0","OBJECT_ID":"2021-040AD","PERIOD":"95.592","EPOCH":"2023-05-20T04:06:09.884736","TLE_LINE2":"2 48455  53.0551 100.8644 0001135  87.8360 272.2759 15.06401721112816","LAUNCH_DATE":"2021-05-09","NORAD_CAT_ID":"48455","APOAPSIS":"547.994","COUNTRY_CODE":"US","REF_FRAME":"TEME","SEMIMAJOR_AXIS":"6925.343","REV_AT_EPOCH":"11281","MEAN_ANOMALY":"272.2759","TIME_SYSTEM":"UTC","RA_OF_ASC_NODE":"100.8644","PERIAPSIS":"546.422","OBJECT_TYPE":"PAYLOAD","MEAN_MOTION_DOT":"0.00001917","ARG_OF_PERICENTER":"87.8360","FILE":"3912534","SITE":"AFETR","GP_ID":"232171407","MEAN_MOTION":"15.06401721","CENTER_NAME":"EARTH","RCS_SIZE":"LARGE","DECAY_DATE":null,"ECCENTRICITY":"0.00011350","INCLINATION":"53.0551","ELEMENT_SET_NO":"999","OBJECT_NAME":"STARLINK-2497"},{"CLASSIFICATION_TYPE":"U","MEAN_ELEMENT_THEORY":"SGP4","BSTAR":"0.00006931000000","TLE_LINE1":"1 48456U 21040AE  23140.16726005  .00000751  00000-0  69310-4 0  9997","MEAN_MOTION_DDOT":"0.0000000000000","OBJECT_ID":"2021-040AE","PERIOD":"95.592","EPHEMERIS_TYPE":"0","TLE_LINE2":"2 48456  53.0551 100.8754 0001250  94.8833 265.2299 15.06395882112811","EPOCH":"2023-05-20T04:00:51.268320","APOAPSIS":"548.092","NORAD_CAT_ID":"48456","COUNTRY_CODE":"US","LAUNCH_DATE":"2021-05-09","SEMIMAJOR_AXIS":"6925.361","REV_AT_EPOCH":"11281","MEAN_ANOMALY":"265.2299","REF_FRAME":"TEME","TIME_SYSTEM":"UTC","RA_OF_ASC_NODE":"100.8754","OBJECT_TYPE":"PAYLOAD","PERIAPSIS":"546.361","MEAN_MOTION_DOT":"0.00000751","ARG_OF_PERICENTER":"94.8833","GP_ID":"232170905","MEAN_MOTION":"15.06395882","FILE":"3912534","SITE":"AFETR","ECCENTRICITY":"0.00012500","INCLINATION":"53.0551","CENTER_NAME":"EARTH","RCS_SIZE":"LARGE","DECAY_DATE":null,"ELEMENT_SET_NO":"999","OBJECT_NAME":"STARLINK-2508"},{"OBJECT_ID":"2021-040AG","PERIOD":"95.592","EPHEMERIS_TYPE":"0","TLE_LINE2":"2 48458  53.0552 105.9079 0001312 102.0293 258.0843 15.06403145112852","EPOCH":"2023-05-20T04:18:47.495232","CLASSIFICATION_TYPE":"U","MEAN_ELEMENT_THEORY":"SGP4","BSTAR":"0.00005093700000","TLE_LINE1":"1 48458U 21040AG  23140.17971638  .00000477  00000-0  50937-4 0  9994","MEAN_MOTION_DDOT":"0.0000000000000","SEMIMAJOR_AXIS":"6925.339","REV_AT_EPOCH":"11285","MEAN_ANOMALY":"258.0843","REF_FRAME":"TEME","TIME_SYSTEM":"UTC","RA_OF_ASC_NODE":"105.9079","NORAD_CAT_ID":"48458","APOAPSIS":"548.113","COUNTRY_CODE":"US","LAUNCH_DATE":"2021-05-09","MEAN_MOTION_DOT":"0.00000477","ARG_OF_PERICENTER":"102.0293","OBJECT_TYPE":"PAYLOAD","PERIAPSIS":"546.295","ELEMENT_SET_NO":"999","OBJECT_NAME":"STARLINK-2698","MEAN_MOTION":"15.06403145","GP_ID":"232207393","FILE":"3913175","SITE":"AFETR","INCLINATION":"53.0552","ECCENTRICITY":"0.00013120","CENTER_NAME":"EARTH","RCS_SIZE":"LARGE","DECAY_DATE":null},{"MEAN_MOTION_DDOT":"0.0000000000000","TLE_LINE1":"1 48459U 21040AH  23140.63679044  .00002892  00000-0  21291-3 0  9995","BSTAR":"0.00021291000000","CLASSIFICATION_TYPE":"U","MEAN_ELEMENT_THEORY":"SGP4","TLE_LINE2":"2 48459  53.0558 104.1321 0001412  86.3897 273.7254 15.06411376112210","EPOCH":"2023-05-20T15:16:58.694016","PERIOD":"95.591","OBJECT_ID":"2021-040AH","EPHEMERIS_TYPE":"0","APOAPSIS":"548.157","NORAD_CAT_ID":"48459","COUNTRY_CODE":"US","LAUNCH_DATE":"2021-05-09","TIME_SYSTEM":"UTC","RA_OF_ASC_NODE":"104.1321","SEMIMAJOR_AXIS":"6925.314","REV_AT_EPOCH":"11221","MEAN_ANOMALY":"273.7254","REF_FRAME":"TEME","OBJECT_TYPE":"PAYLOAD","PERIAPSIS":"546.201","ARG_OF_PERICENTER":"86.3897","MEAN_MOTION_DOT":"0.00002892","ECCENTRICITY":"0.00014120","INCLINATION":"53.0558","RCS_SIZE":"LARGE","CENTER_NAME":"EARTH","DECAY_DATE":null,"GP_ID":"232208140","MEAN_MOTION":"15.06411376","FILE":"3913175","SITE":"AFETR","OBJECT_NAME":"STARLINK-2579","ELEMENT_SET_NO":"999"},{"CLASSIFICATION_TYPE":"U","MEAN_ELEMENT_THEORY":"SGP4","MEAN_MOTION_DDOT":"0.0000000000000","TLE_LINE1":"1 48460U 21040AJ  23140.19075912  .00001805  00000-0  14002-3 0  9997","BSTAR":"0.00014002000000","PERIOD":"95.592","OBJECT_ID":"2021-040AJ","EPHEMERIS_TYPE":"0","TLE_LINE2":"2 48460  53.0543 105.7667 0001184  87.3448 272.7676 15.06397083112647","EPOCH":"2023-05-20T04:34:41.587968","COUNTRY_CODE":"US","NORAD_CAT_ID":"48460","APOAPSIS":"548.042","LAUNCH_DATE":"2021-05-09","MEAN_ANOMALY":"272.7676","REV_AT_EPOCH":"11264","SEMIMAJOR_AXIS":"6925.357","REF_FRAME":"TEME","RA_OF_ASC_NODE":"105.7667","TIME_SYSTEM":"UTC","OBJECT_TYPE":"PAYLOAD","PERIAPSIS":"546.403","MEAN_MOTION_DOT":"0.00001805","ARG_OF_PERICENTER":"87.3448","MEAN_MOTION":"15.06397083","GP_ID":"232171417","SITE":"AFETR","FILE":"3912526","ECCENTRICITY":"0.00011840","INCLINATION":"53.0543","DECAY_DATE":null,"CENTER_NAME":"EARTH","RCS_SIZE":"LARGE","ELEMENT_SET_NO":"999","OBJECT_NAME":"STARLINK-2582"},{"TLE_LINE1":"1 48461U 21040AK  23140.33819578  .00000907  00000-0  79776-4 0  9990","MEAN_MOTION_DDOT":"0.0000000000000","BSTAR":"0.00007977600000","CLASSIFICATION_TYPE":"U","MEAN_ELEMENT_THEORY":"SGP4","TLE_LINE2":"2 48461  53.0551 105.1038 0001193  93.2930 266.8196 15.06400555112173","EPOCH":"2023-05-20T08:07:00.115392","PERIOD":"95.592","OBJECT_ID":"2021-040AK","EPHEMERIS_TYPE":"0","COUNTRY_CODE":"US","APOAPSIS":"548.038","NORAD_CAT_ID":"48461","LAUNCH_DATE":"2021-05-09","RA_OF_ASC_NODE":"105.1038","TIME_SYSTEM":"UTC","MEAN_ANOMALY":"266.8196","REV_AT_EPOCH":"11217","SEMIMAJOR_AXIS":"6925.347","REF_FRAME":"TEME","OBJECT_TYPE":"PAYLOAD","PERIAPSIS":"546.386","ARG_OF_PERICENTER":"93.2930","MEAN_MOTION_DOT":"0.00000907","ECCENTRICITY":"0.00011930","INCLINATION":"53.0551","DECAY_DATE":null,"CENTER_NAME":"EARTH","RCS_SIZE":"LARGE","MEAN_MOTION":"15.06400555","GP_ID":"232207643","SITE":"AFETR","FILE":"3913175","OBJECT_NAME":"STARLINK-2693","ELEMENT_SET_NO":"999"},{"OBJECT_ID":"2021-040AL","PERIOD":"95.592","EPHEMERIS_TYPE":"0","TLE_LINE2":"2 48462  53.0546 110.4669 0001105  85.2136 274.8979 15.06396453112099","EPOCH":"2023-05-20T07:42:30.224160","CLASSIFICATION_TYPE":"U","MEAN_ELEMENT_THEORY":"SGP4","TLE_LINE1":"1 48462U 21040AL  23140.32118315  .00001364  00000-0  11048-3 0  9996","BSTAR":"0.00011048000000","MEAN_MOTION_DDOT":"0.0000000000000","REV_AT_EPOCH":"11209","SEMIMAJOR_AXIS":"6925.359","MEAN_ANOMALY":"274.8979","REF_FRAME":"TEME","TIME_SYSTEM":"UTC","RA_OF_ASC_NODE":"110.4669","APOAPSIS":"547.990","NORAD_CAT_ID":"48462","COUNTRY_CODE":"US","LAUNCH_DATE":"2021-05-09","MEAN_MOTION_DOT":"0.00001364","ARG_OF_PERICENTER":"85.2136","OBJECT_TYPE":"PAYLOAD","PERIAPSIS":"546.459","ELEMENT_SET_NO":"999","OBJECT_NAME":"STARLINK-2683","GP_ID":"232207893","MEAN_MOTION":"15.06396453","FILE":"3913175","SITE":"AFETR","ECCENTRICITY":"0.00011050","INCLINATION":"53.0546","CENTER_NAME":"EARTH","RCS_SIZE":"LARGE","DECAY_DATE":null},{"OBJECT_TYPE":"PAYLOAD","PERIAPSIS":"546.397","MEAN_MOTION_DOT":"0.00000445","ARG_OF_PERICENTER":"90.6089","GP_ID":"232208640","MEAN_MOTION":"15.06391236","FILE":"3913175","SITE":"AFETR","INCLINATION":"53.0538","ECCENTRICITY":"0.00012180","CENTER_NAME":"EARTH","RCS_SIZE":"LARGE","DECAY_DATE":null,"ELEMENT_SET_NO":"999","OBJECT_NAME":"STARLINK-2689","CLASSIFICATION_TYPE":"U","MEAN_ELEMENT_THEORY":"SGP4","TLE_LINE1":"1 48463U 21040AM  23140.19488654  .00000445  00000-0  48795-4 0  9997","BSTAR":"0.00004879500000","MEAN_MOTION_DDOT":"0.0000000000000","OBJECT_ID":"2021-040AM","PERIOD":"95.593","EPHEMERIS_TYPE":"0","TLE_LINE2":"2 48463  53.0538 110.7480 0001218  90.6089 269.5039 15.06391236112088","EPOCH":"2023-05-20T04:40:38.197056","APOAPSIS":"548.084","NORAD_CAT_ID":"48463","COUNTRY_CODE":"US","LAUNCH_DATE":"2021-05-09","REV_AT_EPOCH":"11208","SEMIMAJOR_AXIS":"6925.375","MEAN_ANOMALY":"269.5039","REF_FRAME":"TEME","TIME_SYSTEM":"UTC","RA_OF_ASC_NODE":"110.7480"}];
